[{"OBJECT_NAME":"KUIPER-00275","OBJECT_ID":"2026-030AF","EPOCH":"2026-03-09T17:04:44.260032","MEAN_MOTION":15.34756533,"ECCENTRICITY":0.0009337,"INCLINATION":51.8837,"RA_OF_ASC_NODE":219.2226,"ARG_OF_PERICENTER":52.8442,"MEAN_ANOMALY":307.3396,"EPHEMERIS_TYPE":0,"CLASSIFICATION_TYPE":"U","NORAD_CAT_ID":67793,"ELEMENT_SET_NO":999,"REV_AT_EPOCH":509,"BSTAR":0.00095700084,"MEAN_MOTION_DOT":0.00032535,"MEAN_MOTION_DDOT":0},{"OBJECT_NAME":"FLOCK 4G-35","OBJECT_ID":"2025-009CC","EPOCH":"2026-03-09T18:16:29.173728","MEAN_MOTION":15.33603414,"ECCENTRICITY":0.00032423,"INCLINATION":97.4012,"RA_OF_ASC_NODE":151.7924,"ARG_OF_PERICENTER":307.1268,"MEAN_ANOMALY":52.9678,"EPHEMERIS_TYPE":0,"CLASSIFICATION_TYPE":"U","NORAD_CAT_ID":62683,"ELEMENT_SET_NO":999,"REV_AT_EPOCH":12140,"BSTAR":0.00099271567,"MEAN_MOTION_DOT":0.00032274,"MEAN_MOTION_DDOT":0}]
